{"type": "FeatureCollection", "features": [ {"type": "Feature", "properties": {"norad_id": 28649, "name": "IRS-P5 (CARTOSAT-1)", "group": "resource", "lat": -6.337922819363476, "lon": -168.99635333828152, "alt_km": 601.2603724862256, "timestamp": "2025-12-11T08:58:26.770631+00:00", "meta": {"OBJECT_NAME": "IRS-P5 (CARTOSAT-1)", "OBJECT_ID": "2005-017A", "EPOCH": "2025-12-10T19:15:01.916928", "MEAN_MOTION": 14.90393741, "ECCENTRICITY": 0.00013333, "INCLINATION": 97.5497, "RA_OF_ASC_NODE": 11.3012, "ARG_OF_PERICENTER": 46.6199, "MEAN_ANOMALY": 313.5131, "EPHEMERIS_TYPE": 0, "CLASSIFICATION_TYPE": "U", "NORAD_CAT_ID": 28649, "ELEMENT_SET_NO": 999, "REV_AT_EPOCH": 11575, "BSTAR": 0.00024901803, "MEAN_MOTION_DOT": 2.372e-05, "MEAN_MOTION_DDOT": 0}, "tle": {"line1": "1 28649U 05017A   25344.80210552  .00002372  00000+0  24902-3 0  9996", "line2": "2 28649  97.5497  11.3012 0001333  46.6199 313.5131 14.90393741115752"}}, "geometry": {"type": "Point", "coordinates": [-168.99635333828152, -6.337922819363476]}}, {"type": "Feature", "properties": {"norad_id": 28893, "name": "SINAH 1", "group": "resource", "lat": -49.94219612160199, "lon": 123.87642668984536, "alt_km": 697.8646345474835, "timestamp": "2025-12-11T08:58:26.770643+00:00", "meta": {"OBJECT_NAME": "SINAH 1", "OBJECT_ID": "2005-043D", "EPOCH": "2025-12-11T04:17:04.877952", "MEAN_MOTION": 14.63959696, "ECCENTRICITY": 0.0015264, "INCLINATION": 98.2601, "RA_OF_ASC_NODE": 113.7316, "ARG_OF_PERICENTER": 141.6219, "MEAN_ANOMALY": 218.6072, "EPHEMERIS_TYPE": 0, "CLASSIFICATION_TYPE": "U", "NORAD_CAT_ID": 28893, "ELEMENT_SET_NO": 999, "REV_AT_EPOCH": 7301, "BSTAR": 0.00015992, "MEAN_MOTION_DOT": 7.89e-06, "MEAN_MOTION_DDOT": 0}, "tle": {"line1": "1 28893U 05043D   25345.17852868  .00000789  00000+0  15992-3 0  9998", "line2": "2 28893  98.2601 113.7316 0015264 141.6219 218.6072 14.63959696 73017"}}, "geometry": {"type": "Point", "coordinates": [123.87642668984536, -49.94219612160199]}}, {"type": "Feature", "properties": {"norad_id": 29079, "name": "EROS B", "group": "resource", "lat": 11.886028557606835, "lon": -76.56120536759639, "alt_km": 367.7572562503283, "timestamp": "2025-12-11T08:58:26.770654+00:00", "meta": {"OBJECT_NAME": "EROS B", "OBJECT_ID": "2006-014A", "EPOCH": "2025-12-11T03:39:50.503968", "MEAN_MOTION": 15.67587565, "ECCENTRICITY": 0.0001885, "INCLINATION": 97.3471, "RA_OF_ASC_NODE": 101.651, "ARG_OF_PERICENTER": 293.8286, "MEAN_ANOMALY": 66.2778, "EPHEMERIS_TYPE": 0, "CLASSIFICATION_TYPE": "U", "NORAD_CAT_ID": 29079, "ELEMENT_SET_NO": 999, "REV_AT_EPOCH": 9055, "BSTAR": 0.0019268, "MEAN_MOTION_DOT": 0.00214495, "MEAN_MOTION_DDOT": 0}, "tle": {"line1": "1 29079U 06014A   25345.15266787  .00214495  00000+0  19268-2 0  9991", "line2": "2 29079  97.3471 101.6510 0001885 293.8286  66.2778 15.67587565 90554"}}, "geometry": {"type": "Point", "coordinates": [-76.56120536759639, 11.886028557606835]}}, {"type": "Feature", "properties": {"norad_id": 29228, "name": "RESURS-DK 1", "group": "resource", "lat": -5.956769987364295, "lon": 103.18281491717704, "alt_km": 533.1263188101793, "timestamp": "2025-12-11T08:58:26.770665+00:00", "meta": {"OBJECT_NAME": "RESURS-DK 1", "OBJECT_ID": "2006-021A", "EPOCH": "2025-12-10T18:42:49.206816", "MEAN_MOTION": 15.1214377, "ECCENTRICITY": 0.00074309, "INCLINATION": 69.9334, "RA_OF_ASC_NODE": 106.9034, "ARG_OF_PERICENTER": 261.2716, "MEAN_ANOMALY": 98.7608, "EPHEMERIS_TYPE": 0, "CLASSIFICATION_TYPE": "U", "NORAD_CAT_ID": 29228, "ELEMENT_SET_NO": 999, "REV_AT_EPOCH": 7408, "BSTAR": 0.00025580505, "MEAN_MOTION_DOT": 4.317e-05, "MEAN_MOTION_DDOT": 0}, "tle": {"line1": "1 29228U 06021A   25344.77973619  .00004317  00000+0  25581-3 0  9997", "line2": "2 29228  69.9334 106.9034 0007430 261.2716  98.7608 15.12143770 74089"}}, "geometry": {"type": "Point", "coordinates": [103.18281491717704, -5.956769987364295]}}, {"type": "Feature", "properties": {"norad_id": 29268, "name": "ARIRANG-2 (KOMPSAT-2)", "group": "resource", "lat": -31.912201629723874, "lon": -11.000239361400025, "alt_km": 686.7585135914142, "timestamp": "2025-12-11T08:58:26.770677+00:00", "meta": {"OBJECT_NAME": "ARIRANG-2 (KOMPSAT-2)", "OBJECT_ID": "2006-031A", "EPOCH": "2025-12-11T05:00:12.870720", "MEAN_MOTION": 14.64490807, "ECCENTRICITY": 0.0013615, "INCLINATION": 97.8261, "RA_OF_ASC_NODE": 173.7559, "ARG_OF_PERICENTER": 314.514, "MEAN_ANOMALY": 106.0845, "EPHEMERIS_TYPE": 0, "CLASSIFICATION_TYPE": "U", "NORAD_CAT_ID": 29268, "ELEMENT_SET_NO": 999, "REV_AT_EPOCH": 3396, "BSTAR": 0.00010136, "MEAN_MOTION_DOT": 4.92e-06, "MEAN_MOTION_DDOT": 0}, "tle": {"line1": "1 29268U 06031A   25345.20848230  .00000492  00000+0  10136-3 0  9991", "line2": "2 29268  97.8261 173.7559 0013615 314.5140 106.0845 14.64490807 33961"}}, "geometry": {"type": "Point", "coordinates": [-11.000239361400025, -31.912201629723874]}}, {"type": "Feature", "properties": {"norad_id": 29709, "name": "LAPAN-TUBSAT", "group": "resource", "lat": 42.16579256640664, "lon": -31.93277222853051, "alt_km": 600.2483682936054, "timestamp": "2025-12-11T08:58:26.770688+00:00", "meta": {"OBJECT_NAME": "LAPAN-TUBSAT", "OBJECT_ID": "2007-001A", "EPOCH": "2025-12-11T05:33:00.061344", "MEAN_MOTION": 14.85666361, "ECCENTRICITY": 0.0013695, "INCLINATION": 98.1259, "RA_OF_ASC_NODE": 335.3565, "ARG_OF_PERICENTER": 78.43, "MEAN_ANOMALY": 281.8451, "EPHEMERIS_TYPE": 0, "CLASSIFICATION_TYPE": "U", "NORAD_CAT_ID": 29709, "ELEMENT_SET_NO": 999, "REV_AT_EPOCH": 2324, "BSTAR": 9.3825e-05, "MEAN_MOTION_DOT": 7.57e-06, "MEAN_MOTION_DDOT": 0}, "tle": {"line1": "1 29709U 07001A   25345.23125071  .00000757  00000+0  93825-4 0  9994", "line2": "2 29709  98.1259 335.3565 0013695  78.4300 281.8451 14.85666361 23245"}}, "geometry": {"type": "Point", "coordinates": [-31.93277222853051, 42.16579256640664]}}, {"type": "Feature", "properties": {"norad_id": 31113, "name": "HAIYANG-1B", "group": "resource", "lat": -16.67255769831139, "lon": 147.19311457240323, "alt_km": 802.64501022885, "timestamp": "2025-12-11T08:58:26.770701+00:00", "meta": {"OBJECT_NAME": "HAIYANG-1B", "OBJECT_ID": "2007-010A", "EPOCH": "2025-12-11T04:42:07.449120", "MEAN_MOTION": 14.30964143, "ECCENTRICITY": 0.001432, "INCLINATION": 98.3313, "RA_OF_ASC_NODE": 329.5378, "ARG_OF_PERICENTER": 42.2744, "MEAN_ANOMALY": 317.9541, "EPHEMERIS_TYPE": 0, "CLASSIFICATION_TYPE": "U", "NORAD_CAT_ID": 31113, "ELEMENT_SET_NO": 999, "REV_AT_EPOCH": 97374, "BSTAR": 9.2288e-05, "MEAN_MOTION_DOT": 2.01e-06, "MEAN_MOTION_DDOT": 0}, "tle": {"line1": "1 31113U 07010A   25345.19591955  .00000201  00000+0  92288-4 0  9995", "line2": "2 31113  98.3313 329.5378 0014320  42.2744 317.9541 14.30964143973743"}}, "geometry": {"type": "Point", "coordinates": [147.19311457240323, -16.67255769831139]}}, {"type": "Feature", "properties": {"norad_id": 31598, "name": "COSMO-SKYMED 1", "group": "resource", "lat": -50.014578527725064, "lon": -179.72598662499541, "alt_km": 587.5304301811311, "timestamp": "2025-12-11T08:58:26.770725+00:00", "meta": {"OBJECT_NAME": "COSMO-SKYMED 1", "OBJECT_ID": "2007-023A", "EPOCH": "2025-12-11T04:23:01.137120", "MEAN_MOTION": 14.95744113, "ECCENTRICITY": 0.0001094, "INCLINATION": 97.8835, "RA_OF_ASC_NODE": 170.5717, "ARG_OF_PERICENTER": 86.3493, "MEAN_ANOMALY": 273.7852, "EPHEMERIS_TYPE": 0, "CLASSIFICATION_TYPE": "U", "NORAD_CAT_ID": 31598, "ELEMENT_SET_NO": 999, "REV_AT_EPOCH": 167, "BSTAR": 0.00053108, "MEAN_MOTION_DOT": 5.861e-05, "MEAN_MOTION_DDOT": 0}, "tle": {"line1": "1 31598U 07023A   25345.18265205  .00005861  00000+0  53108-3 0  9995", "line2": "2 31598  97.8835 170.5717 0001094  86.3493 273.7852 14.95744113  1670"}}, "geometry": {"type": "Point", "coordinates": [-179.72598662499541, -50.014578527725064]}}, {"type": "Feature", "properties": {"norad_id": 31698, "name": "TERRASAR-X", "group": "resource", "lat": -30.335767286971095, "lon": 166.38549785511327, "alt_km": 515.0589089461946, "timestamp": "2025-12-11T08:58:26.770747+00:00", "meta": {"OBJECT_NAME": "TERRASAR-X", "OBJECT_ID": "2007-026A", "EPOCH": "2025-12-10T13:04:49.433376", "MEAN_MOTION": 15.19151507, "ECCENTRICITY": 0.0001862, "INCLINATION": 97.446, "RA_OF_ASC_NODE": 349.9579, "ARG_OF_PERICENTER": 94.9214, "MEAN_ANOMALY": 265.2234, "EPHEMERIS_TYPE": 0, "CLASSIFICATION_TYPE": "U", "NORAD_CAT_ID": 31698, "ELEMENT_SET_NO": 999, "REV_AT_EPOCH": 2458, "BSTAR": 9.1186e-05, "MEAN_MOTION_DOT": 1.848e-05, "MEAN_MOTION_DDOT": 0}, "tle": {"line1": "1 31698U 07026A   25344.54501659  .00001848  00000+0  91186-4 0  9994", "line2": "2 31698  97.4460 349.9579 0001862  94.9214 265.2234 15.19151507 24589"}}, "geometry": {"type": "Point", "coordinates": [166.38549785511327, -30.335767286971095]}}, {"type": "Feature", "properties": {"norad_id": 32060, "name": "WORLDVIEW-1 (WV-1)", "group": "resource", "lat": -4.77771656761891, "lon": -77.74706479245532, "alt_km": 495.43631746373194, "timestamp": "2025-12-11T08:58:26.770763+00:00", "meta": {"OBJECT_NAME": "WORLDVIEW-1 (WV-1)", "OBJECT_ID": "2007-041A", "EPOCH": "2025-12-11T05:00:58.762944", "MEAN_MOTION": 15.24647376, "ECCENTRICITY": 7.41e-05, "INCLINATION": 97.3835, "RA_OF_ASC_NODE": 102.7114, "ARG_OF_PERICENTER": 105.8602, "MEAN_ANOMALY": 254.2717, "EPHEMERIS_TYPE": 0, "CLASSIFICATION_TYPE": "U", "NORAD_CAT_ID": 32060, "ELEMENT_SET_NO": 999, "REV_AT_EPOCH": 1424, "BSTAR": 0.00053613, "MEAN_MOTION_DOT": 0.00013179, "MEAN_MOTION_DDOT": 0}, "tle": {"line1": "1 32060U 07041A   25345.20901346  .00013179  00000+0  53613-3 0  9998", "line2": "2 32060  97.3835 102.7114 0000741 105.8602 254.2717 15.24647376 14242"}}, "geometry": {"type": "Point", "coordinates": [-77.74706479245532, -4.77771656761891]}}]}